STARLINK-5673           
1 55462U 23015P   26067.08774002  .00000445  00000+0  48005-4 0  9995
2 55462  43.0046 334.6420 0001271 261.1698  98.9000 15.02536752170513
QPS-SAR-12 (KUSHINADA-I)
1 65116U 25169A   26068.45165888  .00007038  00000+0  57220-3 0  9995
2 65116  42.0102 204.8332 0007793 277.3009  82.6931 14.99881586 32436
